BEIDOU-2 IGSO-1 (C06)   
1 36828U 10036A   26005.15885067 -.00000102  00000+0  00000+0 0  9992
2 36828  54.2910 164.4347 0051889 216.3438 248.9700  1.00270956 56468
BEIDOU-2 G4 (C04)       
1 37210U 10057A   26005.61532887 -.00000114  00000+0  00000+0 0  9994
2 37210   3.2434  69.8417 0010853 197.1891 219.7346  1.00270298 55662
BEIDOU-2 IGSO-2 (C07)   
1 37256U 10068A   26005.49241694 -.00000194  00000+0  00000+0 0  9993
2 37256  47.8395 273.8537 0048016 215.1172 261.6788  1.00277906 55161
BEIDOU-2 IGSO-3 (C08)   
1 37384U 11013A   26005.53440050 -.00000168  00000+0  00000+0 0  9999
2 37384  62.1757  41.6870 0034385 189.1675 173.4618  1.00264736 54032
BEIDOU-2 IGSO-4 (C09)   
1 37763U 11038A   26005.40559802 -.00000016  00000+0  00000+0 0  9991
2 37763  54.5876 167.1352 0150499 230.3340 308.4648  1.00277355 53013
BEIDOU-2 IGSO-5 (C10)   
1 37948U 11073A   26004.68731654 -.00000167  00000+0  00000+0 0  9998
2 37948  47.9758 273.5733 0109204 221.9000 310.3944  1.00285673 51498
BEIDOU-2 G5 (C05)       
1 38091U 12008A   26005.61247266  .00000055  00000+0  00000+0 0  9997
2 38091   3.1684  70.6114 0013788 233.3806  80.4024  1.00272478 50730
BEIDOU-2 M3 (C11)       
1 38250U 12018A   26004.95342589 -.00000080  00000+0  00000+0 0  9994
2 38250  55.8995 310.3776 0023692 276.2717  83.4618  1.86229660 92902
BEIDOU-2 M4 (C12)       
1 38251U 12018B   26004.34854231 -.00000078  00000+0  00000+0 0  9997
2 38251  55.8014 309.6253 0014961 280.6132  79.2206  1.86229412 92894
BEIDOU-2 M6 (C14)       
1 38775U 12050B   26005.13322491 -.00000043  00000+0  00000+0 0  9992
2 38775  56.3984  68.2908 0011952 341.7744  18.2452  1.86230770 90272
BEIDOU-2 G6 (C02)       
1 38953U 12059A   26005.61741270 -.00000178  00000+0  00000+0 0  9991
2 38953   4.0098  75.2671 0008420 291.0975  45.1147  1.00272191 48272
BEIDOU-3S IGSO-1S (C31) 
1 40549U 15019A   26004.76391405 -.00000187  00000+0  00000+0 0  9990
2 40549  49.5063 297.4349 0036440 193.1869 344.0387  1.00287321 39435
BEIDOU-3S M2S (C58)     
1 40748U 15037A   26005.09047619 -.00000079  00000+0  00000+0 0  9993
2 40748  55.0175 307.6624 0011542 272.3994  87.4763  1.86230801 71085
BEIDOU-3S M1S (C57)     
1 40749U 15037B   26003.70694535 -.00000076  00000+0  00000+0 0  9992
2 40749  55.0150 307.6988 0003798   5.8154 354.1920  1.86253788 71069
BEIDOU-3S IGSO-2S (C56) 
1 40938U 15053A   26004.67093356 -.00000105  00000+0  00000+0 0  9994
2 40938  49.4743 260.7322 0061069 187.9747 352.5412  1.00264167 37711
BEIDOU-2 IGSO-6 (C13)   
1 41434U 16021A   26005.54842559 -.00000143  00000+0  00000+0 0  9998
2 41434  59.9994  39.6568 0060922 231.4511 125.6695  1.00288601 35846
BEIDOU-2 G7 (C03)       
1 41586U 16037A   26005.62269940 -.00000355  00000+0  00000+0 0  9994
2 41586   1.8152  68.0161 0005003   1.6185  10.2996  1.00272526  5269
BEIDOU-3 M1 (C19)       
1 43001U 17069A   26005.43566124 -.00000044  00000+0  00000+0 0  9992
2 43001  56.5474  68.4503 0010313 304.1103  55.8544  1.86230806 55574
BEIDOU-3 M2 (C20)       
1 43002U 17069B   26005.37405944 -.00000044  00000+0  00000+0 0  9998
2 43002  56.5461  68.4886 0007375 327.5704  32.4467  1.86230594 55563
BEIDOU-3 M7 (C27)       
1 43107U 18003A   26004.04284280 -.00000078  00000+0  00000+0 0  9991
2 43107  54.4763 308.0398 0003202  66.9685 293.0692  1.86232150 54293
BEIDOU-3 M8 (C28)       
1 43108U 18003B   26005.06183565 -.00000080  00000+0  00000+0 0  9992
2 43108  54.4681 307.9867 0004376 280.6273  79.3309  1.86230649 54328
BEIDOU-3 M4 (C22)       
1 43207U 18018A   26003.89304187 -.00000042  00000+0  00000+0 0  9990
2 43207  56.5047  68.5708 0004729 357.8805   2.1775  1.86230733 53684
BEIDOU-3 M3 (C21)       
1 43208U 18018B   26005.03344689 -.00000043  00000+0  00000+0 0  9991
2 43208  56.5053  68.5372 0007638 315.3938  44.6069  1.86230947 53704
BEIDOU-3 M9 (C29)       
1 43245U 18029A   26005.24986828 -.00000077  00000+0  00000+0 0  9991
2 43245  54.3433 305.6472 0001248 301.4056  58.5936  1.86227861 52861
BEIDOU-3 M10 (C30)      
1 43246U 18029B   26005.18501400 -.00000077  00000+0  00000+0 0  9994
2 43246  54.3413 305.6774 0004452   6.8868 353.1303  1.86228705 52840
BEIDOU-2 IGSO-7 (C16)   
1 43539U 18057A   26005.15661572 -.00000100  00000+0  00000+0 0  9991
2 43539  55.1801 164.4661 0093553 235.1954 230.6715  1.00249884 27490
BEIDOU-3 M5 (C23)       
1 43581U 18062A   26004.33556884  .00000060  00000+0  00000+0 0  9996
2 43581  54.0901 187.8740 0001857 356.9235   3.0790  1.86228512 50583
BEIDOU-3 M6 (C24)       
1 43582U 18062B   26005.27242659  .00000054  00000+0  00000+0 0  9996
2 43582  54.0894 187.8315 0007708  49.0694 310.9953  1.86229576 50608
BEIDOU-3 M12 (C26)      
1 43602U 18067A   26005.21050353  .00000054  00000+0  00000+0 0  9996
2 43602  54.1838 186.5665 0009175  42.1884 317.8778  1.86227524 50083
BEIDOU-3 M11 (C25)      
1 43603U 18067B   26005.34507821  .00000054  00000+0  00000+0 0  9998
2 43603  54.1816 186.5260 0005555  38.9433 321.0916  1.86226994 50117
BEIDOU-3 M13 (C32)      
1 43622U 18072A   26005.30150884 -.00000044  00000+0  00000+0 0  9994
2 43622  56.4791  68.0402 0006885 299.8544  60.1398  1.86230649 49626
BEIDOU-3 M14 (C33)      
1 43623U 18072B   26005.16697456 -.00000043  00000+0  00000+0 0  9999
2 43623  56.4809  68.0383 0004198 327.0964  32.9400  1.86230677 49611
BEIDOU-3 M16 (C35)      
1 43647U 18078A   26005.32446856 -.00000078  00000+0  00000+0 0  9993
2 43647  54.2395 305.6965 0007688  22.0954 337.9491  1.86232218 49124
BEIDOU-3 M15 (C34)      
1 43648U 18078B   26004.37981234 -.00000075  00000+0  00000+0 0  9999
2 43648  54.2365 305.7306 0004275  22.8433 337.1841  1.86231880 49126
BEIDOU-3 G1 (C59)       
1 43683U 18085A   26005.62850610 -.00000279  00000+0  00000+0 0  9994
2 43683   2.6669 102.2085 0001577  69.2019 300.1378  1.00272341 26437
BEIDOU-3 M17 (C36)      
1 43706U 18093A   26005.34389095  .00000054  00000+0  00000+0 0  9992
2 43706  54.1736 187.8199 0006007 306.5655 233.2945  1.86228330 48502
BEIDOU-3 M18 (C37)      
1 43707U 18093B   26004.93728609  .00000055  00000+0  00000+0 0  9996
2 43707  54.1742 187.8258 0006130 353.3654   6.6262  1.86226541 48496
BEIDOU-2 G8 (C01)       
1 44231U 19027A   26005.62945943 -.00000249  00000+0  00000+0 0  9992
2 44231   1.7220  74.7534 0008937 257.7638 143.8344  1.00270067 24458
BEIDOU-3 IGSO-2 (C39)   
1 44337U 19035A   26005.15492590 -.00000116  00000+0  00000+0 0  9994
2 44337  55.2304 160.2953 0037907 203.2791 275.9329  1.00263711 24035
BEIDOU-3 M24 (C46)      
1 44542U 19061A   26005.00802806  .00000056  00000+0  00000+0 0  9992
2 44542  54.4008 188.2306 0009511  26.7418 333.3075  1.86229004 42758
BEIDOU-3 M23 (C45)      
1 44543U 19061B   26005.41088471  .00000054  00000+0  00000+0 0  9990
2 44543  54.3996 188.1852 0005967  25.4420 157.3170  1.86227473 42768
BEIDOU-3 M22 (C44)      
1 44793U 19078A   26003.23709074 -.00000074  00000+0  00000+0 0  9995
2 44793  54.0883 305.6322 0006269  25.5789 334.4568  1.86231762 41573
BEIDOU-3 M21 (C43)      
1 44794U 19078B   26004.98615044 -.00000077  00000+0  00000+0 0  9995
2 44794  54.0599 305.5354 0004394  15.9903 344.0343  1.86227471 41615
BEIDOU-3 M19 (C41)      
1 44864U 19090A   26005.24431229 -.00000044  00000+0  00000+0 0  9992
2 44864  56.4136  68.1814 0018877 286.6477  82.4257  1.86231132 41204
BEIDOU-3 M20 (C42)      
1 44865U 19090B   26004.82711855 -.00000043  00000+0  00000+0 0  9991
2 44865  56.4147  68.2297 0016019 298.5159 240.4634  1.86230985 41174
BEIDOU-3 G2 (C60)       
1 45344U 20017A   26005.61663269 -.00000141  00000+0  00000+0 0  9997
2 45344   2.5423  44.4012 0002740 244.3392 118.4697  1.00270234 21630
BEIDOU-3 G3 (C61)       
1 45807U 20040A   26005.62269940 -.00000355  00000+0  00000+0 0  9993
2 45807   2.0490  66.7800 0003440 291.0376  82.0237  1.00271937 20449
BEIDOU-3 G4 (C62)       
1 56564U 23066A   26005.58239249 -.00000112  00000+0  00000+0 0  9991
2 56564   0.7633 304.1571 0002023 233.0341 297.6480  1.00270229  9762
BEIDOU-3 M28 (C50)      
1 58654U 23207A   26005.06420748 -.00000045  00000+0  00000+0 0  9994
2 58654  55.6048  67.8111 0003359 280.9539  79.0698  1.86229623 13808
BEIDOU-3 M26 (C48)      
1 58655U 23207B   26005.39861245 -.00000046  00000+0  00000+0 0  9993
2 58655  55.6071  67.7860 0004594 266.4632  93.5461  1.86231150 13795
BEIDOU-3 M25 (C47)      
1 61186U 24168B   26005.39345884 -.00000080  00000+0  00000+0 0  9997
2 61186  54.6199 307.8997 0005186 303.9278 169.4521  1.86229873  8757
BEIDOU-3 M27 (C49)      
1 61187U 24168C   26005.11173954 -.00000079  00000+0  00000+0 0  9993
2 61187  54.6156 307.8930 0002579 349.4264  70.0321  1.86230013  6224
